TDRS 3                  
1 19548U 88091B   26087.10712557 -.00000312  00000+0  00000+0 0  9999
2 19548  12.6635 341.5377 0042543 354.8893 198.7533  1.00269546124578
FLTSATCOM 8 (USA 46)    
1 20253U 89077A   26087.56975346 -.00000380  00000+0  00000+0 0  9991
2 20253  12.4438 351.6472 0008059 356.3586 168.8484  1.00275102259757
SKYNET 4C               
1 20776U 90079A   26087.83666557  .00000113  00000+0  00000+0 0  9999
2 20776  13.3658 350.3637 0003469   5.3383 165.0871  1.00272795130084
TDRS 5                  
1 21639U 91054B   26087.25558338  .00000072  00000+0  00000+0 0  9999
2 21639  14.0818 354.3784 0009589 279.2122 196.4212  1.00275572126907
TDRS 6                  
1 22314U 93003B   26087.88851140 -.00000308  00000+0  00000+0 0  9995
2 22314  14.1817 357.6547 0005043 185.4414 277.2290  1.00269870121604
UFO 2 (USA 95)          
1 22787U 93056A   26086.97822622  .00000112  00000+0  00000+0 0  9991
2 22787  11.8670   3.9952 0008960 345.4330 216.7946  1.00274849117733
USA 99 (MILSTAR-1 1)    
1 22988U 94009A   26087.32961538 -.00000210  00000+0  00000+0 0  9993
2 22988  17.4988  28.5814 0003958 324.3153 221.5262  1.00273320 32140
UFO 4 (USA 108)         
1 23467U 95003A   26086.59003209 -.00000032  00000+0  00000+0 0  9993
2 23467   9.6904  13.4957 0003732 357.2668 199.1647  1.00277049114130
TDRS 7                  
1 23613U 95035B   26087.72197429 -.00000251  00000+0  00000+0 0  9998
2 23613  13.4109 348.7422 0009219  54.0130 132.3570  1.00270113112447
USA 115 (MILSTAR-1 2)   
1 23712U 95060A   26087.39072573 -.00000033  00000+0  00000+0 0  9999
2 23712  14.0449   4.3498 0003886 348.9027 213.2109  1.00274213 32075
INMARSAT 3-F1           
1 23839U 96020A   26087.68467398 -.00000174  00000+0  00000+0 0  9997
2 23839  10.4354  47.3616 0005001 296.7094  74.9858  1.00000984109456
INMARSAT 3-F2           
1 24307U 96053A   26087.51642039  .00000071  00000+0  00000+0 0  9998
2 24307   9.6757  54.7427 0006372 318.0222 228.4243  0.99982304108117
INMARSAT 3-F3           
1 24674U 96070A   26087.78382108 -.00000371  00000+0  00000+0 0  9995
2 24674  10.1462  50.4074 0005882 293.2173 251.9723  0.99992712107105
AMC-3                   
1 24936U 97050A   26087.36433704 -.00000276  00000+0  00000+0 0  9992
2 24936   7.9494  64.9940 0003348 305.1825 234.7528  1.00272008 51628
USA 134                 
1 25019U 97065A   26087.87898484 -.00000074  00000+0  00000+0 0  9993
2 25019  12.6905  22.3187 0006570 316.7634  51.2434  1.00268868 32152
INMARSAT 3-F5           
1 25153U 98006B   26087.81924551 -.00000304  00000+0  00000+0 0  9993
2 25153   9.5159  54.0427 0005188 311.4727  61.6227  1.00274605103098
ABS-6                   
1 25924U 99053A   26087.86147810 -.00000139  00000+0  00000+0 0  9998
2 25924   0.0300 108.2451 0002874 269.2708 277.8755  1.00270849 97034
